[{"OBJECT_NAME":"STARLINK-30948","OBJECT_ID":"2023-191T","EPOCH":"2026-03-09T11:48:10.828800","MEAN_MOTION":15.26742007,"ECCENTRICITY":0.00013517,"INCLINATION":43.0032,"RA_OF_ASC_NODE":104.3273,"ARG_OF_PERICENTER":273.7226,"MEAN_ANOMALY":86.3471,"EPHEMERIS_TYPE":0,"CLASSIFICATION_TYPE":"U","NORAD_CAT_ID":58525,"ELEMENT_SET_NO":999,"REV_AT_EPOCH":12544,"BSTAR":2.0956294e-5,"MEAN_MOTION_DOT":3.02e-6,"MEAN_MOTION_DDOT":0},{"OBJECT_NAME":"MESON-1","OBJECT_ID":"2024-043AK","EPOCH":"2026-03-09T21:36:16.481664","MEAN_MOTION":15.29893494,"ECCENTRICITY":0.00095452,"INCLINATION":97.5469,"RA_OF_ASC_NODE":205.2839,"ARG_OF_PERICENTER":227.1432,"MEAN_ANOMALY":132.9007,"EPHEMERIS_TYPE":0,"CLASSIFICATION_TYPE":"U","NORAD_CAT_ID":59131,"ELEMENT_SET_NO":999,"REV_AT_EPOCH":11189,"BSTAR":0.0002974823,"MEAN_MOTION_DOT":8.544e-5,"MEAN_MOTION_DDOT":0}]
